STARLINK-1452           
1 45669U 20035N   25301.22012585  .00046166  00000+0  17778-2 0  9990
2 45669  53.0419 283.0365 0008558   6.9146 353.1968 15.25901002299025
STARLINK-1453           
1 45670U 20035P   25301.21293970  .00001274  00000+0  10442-3 0  9993
2 45670  53.0537 271.3332 0001108  84.6808 275.4307 15.06397483299073
STARLINK-1454           
1 45671U 20035Q   25302.28646556  .00002530  00000+0  18867-3 0  9999
2 45671  53.0553 296.5138 0001329  92.2404 267.8737 15.06400843298916
STARLINK-1456           
1 45673U 20035S   25302.30120875  .00006280  00000+0  44001-3 0  9990
2 45673  53.0544 296.4475 0001335  93.9642 266.1500 15.06406724298936
STARLINK-1457           
1 45674U 20035T   25302.30823661  .00039501  00000+0  26367-2 0  9990
2 45674  53.0549 296.4117 0001397 101.8761 258.2384 15.06670576298901
STARLINK-1458           
1 45675U 20035U   25302.29753139  .00008573  00000+0  59358-3 0  9993
2 45675  53.0544 296.4605 0001335 101.8917 258.2222 15.06409192298897
STARLINK-1460           
1 45676U 20035V   25302.26804356  .00002920  00000+0  21478-3 0  9991
2 45676  53.0549 296.5925 0001525  95.2946 264.8217 15.06405392298882
STARLINK-1392           
1 45677U 20035W   25302.27908929  .00005089  00000+0  36010-3 0  9991
2 45677  53.0549 296.5483 0001355  93.6743 266.4401 15.06419219298921
STARLINK-1394           
1 45679U 20035Y   25302.27633716  .00011372  00000+0  78045-3 0  9998
2 45679  53.0537 286.5557 0001572  88.9815 271.1354 15.06431400299061
STARLINK-1402           
1 45685U 20035AE  25302.50003471  .00010215  00000+0  39783-3 0  9991
2 45685  53.0533 278.5950 0001760  92.9402 225.5766 15.26575732  5679
STARLINK-1404           
1 45686U 20035AF  25302.23578510  .00003040  00000+0  22279-3 0  9993
2 45686  53.0550 286.7414 0001419  90.9623 269.1528 15.06412438299068
STARLINK-1413           
1 45689U 20035AJ  25302.25421845  .00002004  00000+0  15340-3 0  9996
2 45689  53.0543 286.6538 0001351  94.6221 265.4922 15.06405293298976
STARLINK-1417           
1 45693U 20035AN  25302.18418323  .00002353  00000+0  17674-3 0  9999
2 45693  53.0539 286.9722 0001356  91.3340 268.7804 15.06410462299043
STARLINK-1420           
1 45695U 20035AQ  25302.18508024  .00001657  00000+0  13007-3 0  9991
2 45695  53.0544 266.9568 0001566  93.9011 266.2157 15.06407248299337
STARLINK-1422           
1 45696U 20035AR  25302.26158052  .00002888  00000+0  21259-3 0  9998
2 45696  53.0546 286.6249 0001465  90.2440 269.8717 15.06416552299057
STARLINK-1351           
1 45697U 20035AS  25301.24245063 -.00002054  00000+0 -11910-3 0  9995
2 45697  53.0554 271.1977 0001338  90.2998 269.8144 15.06378600299191
