[{"OBJECT_NAME":"STARLINK-1452","OBJECT_ID":"2020-035N","EPOCH":"2025-10-28T05:16:58.873440","MEAN_MOTION":15.25901002,"ECCENTRICITY":0.00085581,"INCLINATION":53.0419,"RA_OF_ASC_NODE":283.0365,"ARG_OF_PERICENTER":6.9146,"MEAN_ANOMALY":353.1968,"EPHEMERIS_TYPE":0,"CLASSIFICATION_TYPE":"U","NORAD_CAT_ID":45669,"ELEMENT_SET_NO":999,"REV_AT_EPOCH":29902,"BSTAR":0.0017777879,"MEAN_MOTION_DOT":0.00046166,"MEAN_MOTION_DDOT":0},{"OBJECT_NAME":"STARLINK-1453","OBJECT_ID":"2020-035P","EPOCH":"2025-10-28T05:06:37.990080","MEAN_MOTION":15.06397483,"ECCENTRICITY":0.00011088,"INCLINATION":53.0537,"RA_OF_ASC_NODE":271.3332,"ARG_OF_PERICENTER":84.6808,"MEAN_ANOMALY":275.4307,"EPHEMERIS_TYPE":0,"CLASSIFICATION_TYPE":"U","NORAD_CAT_ID":45670,"ELEMENT_SET_NO":999,"REV_AT_EPOCH":29907,"BSTAR":0.00010442435,"MEAN_MOTION_DOT":1.274e-5,"MEAN_MOTION_DDOT":0},{"OBJECT_NAME":"STARLINK-1454","OBJECT_ID":"2020-035Q","EPOCH":"2025-10-29T06:52:30.624384","MEAN_MOTION":15.06400843,"ECCENTRICITY":0.0001329,"INCLINATION":53.0553,"RA_OF_ASC_NODE":296.5138,"ARG_OF_PERICENTER":92.2404,"MEAN_ANOMALY":267.8737,"EPHEMERIS_TYPE":0,"CLASSIFICATION_TYPE":"U","NORAD_CAT_ID":45671,"ELEMENT_SET_NO":999,"REV_AT_EPOCH":29891,"BSTAR":0.00018867,"MEAN_MOTION_DOT":2.53e-5,"MEAN_MOTION_DDOT":0},{"OBJECT_NAME":"STARLINK-1456","OBJECT_ID":"2020-035S","EPOCH":"2025-10-29T07:13:44.436000","MEAN_MOTION":15.06406724,"ECCENTRICITY":0.0001335,"INCLINATION":53.0544,"RA_OF_ASC_NODE":296.4475,"ARG_OF_PERICENTER":93.9642,"MEAN_ANOMALY":266.15,"EPHEMERIS_TYPE":0,"CLASSIFICATION_TYPE":"U","NORAD_CAT_ID":45673,"ELEMENT_SET_NO":999,"REV_AT_EPOCH":29893,"BSTAR":0.00044001,"MEAN_MOTION_DOT":6.28e-5,"MEAN_MOTION_DDOT":0},{"OBJECT_NAME":"STARLINK-1457","OBJECT_ID":"2020-035T","EPOCH":"2025-10-29T07:23:51.643104","MEAN_MOTION":15.06670576,"ECCENTRICITY":0.0001397,"INCLINATION":53.0549,"RA_OF_ASC_NODE":296.4117,"ARG_OF_PERICENTER":101.8761,"MEAN_ANOMALY":258.2384,"EPHEMERIS_TYPE":0,"CLASSIFICATION_TYPE":"U","NORAD_CAT_ID":45674,"ELEMENT_SET_NO":999,"REV_AT_EPOCH":29890,"BSTAR":0.0026367,"MEAN_MOTION_DOT":0.00039501,"MEAN_MOTION_DDOT":0},{"OBJECT_NAME":"STARLINK-1458","OBJECT_ID":"2020-035U","EPOCH":"2025-10-29T07:08:26.712096","MEAN_MOTION":15.06409192,"ECCENTRICITY":0.0001335,"INCLINATION":53.0544,"RA_OF_ASC_NODE":296.4605,"ARG_OF_PERICENTER":101.8917,"MEAN_ANOMALY":258.2222,"EPHEMERIS_TYPE":0,"CLASSIFICATION_TYPE":"U","NORAD_CAT_ID":45675,"ELEMENT_SET_NO":999,"REV_AT_EPOCH":29889,"BSTAR":0.00059358,"MEAN_MOTION_DOT":8.573e-5,"MEAN_MOTION_DDOT":0},{"OBJECT_NAME":"STARLINK-1460","OBJECT_ID":"2020-035V","EPOCH":"2025-10-29T06:25:58.963584","MEAN_MOTION":15.06405392,"ECCENTRICITY":0.0001525,"INCLINATION":53.0549,"RA_OF_ASC_NODE":296.5925,"ARG_OF_PERICENTER":95.2946,"MEAN_ANOMALY":264.8217,"EPHEMERIS_TYPE":0,"CLASSIFICATION_TYPE":"U","NORAD_CAT_ID":45676,"ELEMENT_SET_NO":999,"REV_AT_EPOCH":29888,"BSTAR":0.00021478,"MEAN_MOTION_DOT":2.92e-5,"MEAN_MOTION_DDOT":0},{"OBJECT_NAME":"STARLINK-1392","OBJECT_ID":"2020-035W","EPOCH":"2025-10-29T06:41:53.314656","MEAN_MOTION":15.06419219,"ECCENTRICITY":0.0001355,"INCLINATION":53.0549,"RA_OF_ASC_NODE":296.5483,"ARG_OF_PERICENTER":93.6743,"MEAN_ANOMALY":266.4401,"EPHEMERIS_TYPE":0,"CLASSIFICATION_TYPE":"U","NORAD_CAT_ID":45677,"ELEMENT_SET_NO":999,"REV_AT_EPOCH":29892,"BSTAR":0.0003601,"MEAN_MOTION_DOT":5.089e-5,"MEAN_MOTION_DDOT":0},{"OBJECT_NAME":"STARLINK-1394","OBJECT_ID":"2020-035Y","EPOCH":"2025-10-29T06:37:55.530624","MEAN_MOTION":15.064314,"ECCENTRICITY":0.0001572,"INCLINATION":53.0537,"RA_OF_ASC_NODE":286.5557,"ARG_OF_PERICENTER":88.9815,"MEAN_ANOMALY":271.1354,"EPHEMERIS_TYPE":0,"CLASSIFICATION_TYPE":"U","NORAD_CAT_ID":45679,"ELEMENT_SET_NO":999,"REV_AT_EPOCH":29906,"BSTAR":0.00078045,"MEAN_MOTION_DOT":0.00011372,"MEAN_MOTION_DDOT":0},{"OBJECT_NAME":"STARLINK-1402","OBJECT_ID":"2020-035AE","EPOCH":"2025-10-29T12:00:02.998944","MEAN_MOTION":15.26575732,"ECCENTRICITY":0.000176,"INCLINATION":53.0533,"RA_OF_ASC_NODE":278.595,"ARG_OF_PERICENTER":92.9402,"MEAN_ANOMALY":225.5766,"EPHEMERIS_TYPE":0,"CLASSIFICATION_TYPE":"U","NORAD_CAT_ID":45685,"ELEMENT_SET_NO":999,"REV_AT_EPOCH":567,"BSTAR":0.00039783,"MEAN_MOTION_DOT":0.00010215,"MEAN_MOTION_DDOT":0},{"OBJECT_NAME":"STARLINK-1404","OBJECT_ID":"2020-035AF","EPOCH":"2025-10-29T05:39:31.832640","MEAN_MOTION":15.06412438,"ECCENTRICITY":0.0001419,"INCLINATION":53.055,"RA_OF_ASC_NODE":286.7414,"ARG_OF_PERICENTER":90.9623,"MEAN_ANOMALY":269.1528,"EPHEMERIS_TYPE":0,"CLASSIFICATION_TYPE":"U","NORAD_CAT_ID":45686,"ELEMENT_SET_NO":999,"REV_AT_EPOCH":29906,"BSTAR":0.00022279,"MEAN_MOTION_DOT":3.04e-5,"MEAN_MOTION_DDOT":0},{"OBJECT_NAME":"STARLINK-1413","OBJECT_ID":"2020-035AJ","EPOCH":"2025-10-29T06:06:04.474080","MEAN_MOTION":15.06405293,"ECCENTRICITY":0.0001351,"INCLINATION":53.0543,"RA_OF_ASC_NODE":286.6538,"ARG_OF_PERICENTER":94.6221,"MEAN_ANOMALY":265.4922,"EPHEMERIS_TYPE":0,"CLASSIFICATION_TYPE":"U","NORAD_CAT_ID":45689,"ELEMENT_SET_NO":999,"REV_AT_EPOCH":29897,"BSTAR":0.0001534,"MEAN_MOTION_DOT":2.004e-5,"MEAN_MOTION_DDOT":0},{"OBJECT_NAME":"STARLINK-1417","OBJECT_ID":"2020-035AN","EPOCH":"2025-10-29T04:25:13.431072","MEAN_MOTION":15.06410462,"ECCENTRICITY":0.0001356,"INCLINATION":53.0539,"RA_OF_ASC_NODE":286.9722,"ARG_OF_PERICENTER":91.334,"MEAN_ANOMALY":268.7804,"EPHEMERIS_TYPE":0,"CLASSIFICATION_TYPE":"U","NORAD_CAT_ID":45693,"ELEMENT_SET_NO":999,"REV_AT_EPOCH":29904,"BSTAR":0.00017674,"MEAN_MOTION_DOT":2.353e-5,"MEAN_MOTION_DDOT":0},{"OBJECT_NAME":"STARLINK-1420","OBJECT_ID":"2020-035AQ","EPOCH":"2025-10-29T04:26:30.932736","MEAN_MOTION":15.06407248,"ECCENTRICITY":0.0001566,"INCLINATION":53.0544,"RA_OF_ASC_NODE":266.9568,"ARG_OF_PERICENTER":93.9011,"MEAN_ANOMALY":266.2157,"EPHEMERIS_TYPE":0,"CLASSIFICATION_TYPE":"U","NORAD_CAT_ID":45695,"ELEMENT_SET_NO":999,"REV_AT_EPOCH":29933,"BSTAR":0.00013007,"MEAN_MOTION_DOT":1.657e-5,"MEAN_MOTION_DDOT":0},{"OBJECT_NAME":"STARLINK-1422","OBJECT_ID":"2020-035AR","EPOCH":"2025-10-29T06:16:40.556928","MEAN_MOTION":15.06416552,"ECCENTRICITY":0.0001465,"INCLINATION":53.0546,"RA_OF_ASC_NODE":286.6249,"ARG_OF_PERICENTER":90.244,"MEAN_ANOMALY":269.8717,"EPHEMERIS_TYPE":0,"CLASSIFICATION_TYPE":"U","NORAD_CAT_ID":45696,"ELEMENT_SET_NO":999,"REV_AT_EPOCH":29905,"BSTAR":0.00021259,"MEAN_MOTION_DOT":2.888e-5,"MEAN_MOTION_DDOT":0},{"OBJECT_NAME":"STARLINK-1351","OBJECT_ID":"2020-035AS","EPOCH":"2025-10-28T05:49:07.734432","MEAN_MOTION":15.063786,"ECCENTRICITY":0.00013385,"INCLINATION":53.0554,"RA_OF_ASC_NODE":271.1977,"ARG_OF_PERICENTER":90.2998,"MEAN_ANOMALY":269.8144,"EPHEMERIS_TYPE":0,"CLASSIFICATION_TYPE":"U","NORAD_CAT_ID":45697,"ELEMENT_SET_NO":999,"REV_AT_EPOCH":29919,"BSTAR":-0.00011910494,"MEAN_MOTION_DOT":-2.054e-5,"MEAN_MOTION_DDOT":0}]
